LEMUR-2-GREENBERG       
1 42837U 17042N   26068.46200528  .00019778  00000+0  72539-3 0  9997
2 42837  97.3781 249.8007 0009157   4.0119 356.1192 15.27971352473146
STARLINK-31888          
1 59788U 24093G   26068.46300174 -.00003387  00000+0 -11369-3 0  9997
2 59788  43.0024 209.9290 0001204 265.3673  94.7041 15.27559291102668
